{"epoch":1784799577,"count":18318,"objects":[{"id":"31573","name":"GLOBALSTAR M069","type":"PAYLOAD","l1":"1 31573U 07020C   26203.34397047 -.00000053  00000-0  36290-3 0  9990","l2":"2 31573  52.0018 152.6174 0001486 226.2046 297.9391 12.23472540883104"},{"id":"31574","name":"GLOBALSTAR M072","type":"PAYLOAD","l1":"1 31574U 07020D   26203.43989804 -.00000088  00000-0 -55494-4 0  9996","l2":"2 31574  51.9955   6.3933 0001633  48.1342 337.6937 11.91658759879188"},{"id":"32265","name":"GLOBALSTAR M066","type":"PAYLOAD","l1":"1 32265U 07048C   26203.32694402 -.00000025  00000-0  59145-3 0  9995","l2":"2 32265  51.9610 317.0380 0005481 116.3209 278.9500 12.30390412864558"},{"id":"37188","name":"GLOBALSTAR M079","type":"PAYLOAD","l1":"1 37188U 10054A   26203.76436852 -.00000099  00000-0  26196-4 0  9998","l2":"2 37188  52.0059   0.3677 0001113  89.9803 309.6942 12.62266424727044"},{"id":"37189","name":"GLOBALSTAR M074","type":"PAYLOAD","l1":"1 37189U 10054B   26203.70807359 -.00000103  00000-0  61618-5 0  9992","l2":"2 37189  52.0038 359.7991 0000833 104.9572 278.6412 12.62262042727646"},{"id":"37190","name":"GLOBALSTAR M076","type":"PAYLOAD","l1":"1 37190U 10054C   26203.84446869 -.00000081  00000-0  12609-3 0  9993","l2":"2 37190  52.0053 359.5904 0001081 102.3636  61.2519 12.62262687727375"},{"id":"37191","name":"GLOBALSTAR M077","type":"PAYLOAD","l1":"1 37191U 10054D   26203.73050991 -.00000093  00000-0 -28353-3 0  9996","l2":"2 37191  51.9963  89.0814 0002146 239.1059 154.5013 11.67547108725292"},{"id":"37192","name":"GLOBALSTAR M075","type":"PAYLOAD","l1":"1 37192U 10054E   26203.82672162 -.00000105  00000-0 -87121-5 0  9991","l2":"2 37192  51.9957  41.6779 0000796  75.7772 307.8337 12.62267903726443"},{"id":"37193","name":"GLOBALSTAR M073","type":"PAYLOAD","l1":"1 37193U 10054F   26203.77869505 -.00000099  00000-0  24966-4 0  9993","l2":"2 37193  52.0079 315.9537 0000966 108.4252  55.1213 12.62266975728420"},{"id":"37739","name":"GLOBALSTAR M083","type":"PAYLOAD","l1":"1 37739U 11033A   26203.63347001 -.00000093  00000-0  58113-4 0  9999","l2":"2 37739  51.9856 264.5775 0000765 113.2846  51.2146 12.62258471697429"},{"id":"37740","name":"GLOBALSTAR M088","type":"PAYLOAD","l1":"1 37740U 11033B   26203.89334176 -.00000085  00000-0  10602-3 0  9999","l2":"2 37740  52.0194 170.2966 0000186  32.3048 352.4969 12.62269574693000"},{"id":"37741","name":"GLOBALSTAR M091","type":"PAYLOAD","l1":"1 37741U 11033C   26203.82938725 -.00000095  00000-0  50791-4 0  9998","l2":"2 37741  51.9992 133.4047 0000599  36.3048 358.2285 12.62264367693783"},{"id":"37742","name":"GLOBALSTAR M085","type":"PAYLOAD","l1":"1 37742U 11033D   26203.73856361 -.00000104  00000-0 -13927-5 0  9997","l2":"2 37742  52.0129  85.0047 0000910  54.7580 346.8564 12.62264539694282"},{"id":"37743","name":"GLOBALSTAR M081","type":"PAYLOAD","l1":"1 37743U 11033E   26203.59852970 -.00000097  00000-0  35325-4 0  9999","l2":"2 37743  51.9960  87.8265 0000778  64.8097 300.0557 12.62265457694412"},{"id":"37744","name":"GLOBALSTAR M089","type":"PAYLOAD","l1":"1 37744U 11033F   26203.79903167 -.00000100  00000-0  18696-4 0  9994","l2":"2 37744  51.9941  41.3673 0000724  99.1495 278.4393 12.62267677695282"},{"id":"38040","name":"GLOBALSTAR M084","type":"PAYLOAD","l1":"1 38040U 11080A   26203.92770610 -.00000093  00000-0  58151-4 0  9997","l2":"2 38040  52.0004 268.4782 0000659 144.0188  38.2655 12.62263728673274"},{"id":"38041","name":"GLOBALSTAR M080","type":"PAYLOAD","l1":"1 38041U 11080B   26203.89948921 -.00000095  00000-0  47951-4 0  9994","l2":"2 38041  52.0054 270.2953 0000299  64.0996 119.5345 12.62257646673393"},{"id":"38042","name":"GLOBALSTAR M082","type":"PAYLOAD","l1":"1 38042U 11080C   26203.25855456 -.00000093  00000-0  60693-4 0  9991","l2":"2 38042  52.0051 227.7492 0000213  49.6438  30.1960 12.62264365674020"},{"id":"38043","name":"GLOBALSTAR M092","type":"PAYLOAD","l1":"1 38043U 11080D   26203.80558531 -.00000087  00000-0  91413-4 0  9994","l2":"2 38043  52.0104 316.4828 0000707 112.8753  53.4140 12.62268010672544"},{"id":"38044","name":"GLOBALSTAR M090","type":"PAYLOAD","l1":"1 38044U 11080E   26203.78275194 -.00000088  00000-0  86946-4 0  9999","l2":"2 38044  52.0097 220.1205 0000389  78.0793 103.8667 12.62269656674205"},{"id":"38045","name":"GLOBALSTAR M086","type":"PAYLOAD","l1":"1 38045U 11080F   26203.48328235 -.00000092  00000-0  64873-4 0  9992","l2":"2 38045  51.9868 220.9029 0001397 121.9821  42.6812 12.62287851674111"},{"id":"39072","name":"GLOBALSTAR M097","type":"PAYLOAD","l1":"1 39072U 13005A   26203.55813747 -.00000115  00000-0 -61012-4 0  9996","l2":"2 39072  52.0041 135.6627 0000582  47.8826 312.2090 12.62271291621374"},{"id":"39073","name":"GLOBALSTAR M093","type":"PAYLOAD","l1":"1 39073U 13005B   26203.53140246 -.00000096  00000-0  42617-4 0  9999","l2":"2 39073  52.0101 129.1050 0000812  54.3817 305.7125 12.62266443621323"},{"id":"39074","name":"GLOBALSTAR M094","type":"PAYLOAD","l1":"1 39074U 13005C   26203.29371225 -.00000106  00000-0 -14110-4 0  9996","l2":"2 39074  51.9970  43.9101 0001046  74.6470 285.4512 12.62264268622908"},{"id":"39075","name":"GLOBALSTAR M096","type":"PAYLOAD","l1":"1 39075U 13005D   26203.94070740 -.00000100  00000-0  22972-4 0  9995","l2":"2 39075  52.0077  90.7705 0000868  55.8955 304.1994 12.62265940621909"},{"id":"39076","name":"GLOBALSTAR M078","type":"PAYLOAD","l1":"1 39076U 13005E   26203.28038619 -.00000090  00000-0  74678-4 0  9990","l2":"2 39076  51.9850 176.7415 0001009 358.0095   2.0767 12.62260123620449"},{"id":"39077","name":"GLOBALSTAR M095","type":"PAYLOAD","l1":"1 39077U 13005F   26203.94052443 -.00000098  00000-0  33585-4 0  9995","l2":"2 39077  52.0058 172.3851 0000640  25.8093 334.2805 12.62264064620389"},{"id":"52888","name":"GLOBALSTAR M087","type":"PAYLOAD","l1":"1 52888U 22064A   26203.71605011 -.00000089  00000-0  79987-4 0  9991","l2":"2 52888  52.0014 314.2882 0000860  94.4900 265.6065 12.62269507195626"}]}